SL-16 R/B               
1 22566U 93016B   26059.73325617  .00000323  00000+0  19030-3 0  9999
2 22566  71.0052 233.9928 0011174 326.7530  33.2889 14.15303053700908
COSMOS 2242             
1 22626U 93024A   26059.67627104  .00002007  00000+0  17405-3 0  9999
2 22626  82.5161 275.3397 0015876 341.0007  19.0621 14.96505915779042
SL-16 R/B               
1 22803U 93059B   26059.86599617  .00000197  00000+0  12099-3 0  9994
2 22803  70.9912  29.7325 0018888 228.8271 131.1224 14.17231264678282
ARIANE 40 R/B           
1 22830U 93061H   26059.76025624  .00000211  00000+0  93209-4 0  9998
2 22830  98.4937 128.8235 0009737 314.5434  45.4954 14.32855372692824
COSMOS 2278             
1 23087U 94023A   26059.82797365  .00000366  00000+0  21605-3 0  9998
2 23087  71.0536 193.6356 0007540  31.2671 328.8899 14.14373294643551
SL-16 R/B               
1 23088U 94023B   26059.52497338 -.00000009  00000+0  19884-4 0  9995
2 23088  70.9987  90.1355 0005474 294.4161  65.6390 14.15013402644793
SL-16 R/B               
1 23343U 94074B   26059.67254590  .00000533  00000+0  78115-4 0  9995
2 23343  97.7122  90.8551 0005227 245.4987 229.0130 14.79395584685919
SL-16 R/B               
1 23405U 94077B   26059.86347538 -.00000229  00000+0 -92610-4 0  9993
2 23405  70.9849  11.0558 0003558 223.4029 136.6814 14.15563192614980
ARIANE 40+ R/B          
1 23561U 95021B   26059.79200903  .00000305  00000+0  11115-3 0  9995
2 23561  98.4516 131.3945 0007252 160.2065 310.8929 14.39764792617967
SL-16 R/B               
1 23705U 95058B   26059.79936446 -.00000168  00000+0 -61508-4 0  9994
2 23705  71.0208 198.9182 0011074 141.5555 218.6359 14.15492891566593
SL-16 R/B               
1 24298U 96051B   26059.81759013  .00000071  00000+0  65300-4 0  9997
2 24298  70.7591 194.0161 0015880 161.0048 199.1667 14.12412950520397
ORBVIEW 2 (SEASTAR)     
1 24883U 97037A   26059.42630037  .00000329  00000+0  13059-3 0  9992
2 24883  98.8551 223.4935 0003214  90.6647 269.4906 14.35486363507149
