CCSDS_OMM_VERS = 2.0
CREATION_DATE  = 
ORIGINATOR     = 

OBJECT_NAME    = SL-16 R/B
OBJECT_ID      = 1993-016B
CENTER_NAME    = EARTH
REF_FRAME      = TEME
TIME_SYSTEM    = UTC
MEAN_ELEMENT_THEORY = SGP/SGP4

EPOCH          = 2026-02-28T17:35:53.333088
MEAN_MOTION    = 14.15303053
ECCENTRICITY   = .0011174
INCLINATION    = 71.0052
RA_OF_ASC_NODE = 233.9928
ARG_OF_PERICENTER = 326.7530
MEAN_ANOMALY   = 33.2889

EPHEMERIS_TYPE = 0
CLASSIFICATION_TYPE = U
NORAD_CAT_ID   = 22566
ELEMENT_SET_NO = 999
REV_AT_EPOCH   = 70090
BSTAR          = .1903E-3
MEAN_MOTION_DOT = .323E-5
MEAN_MOTION_DDOT = 0

CCSDS_OMM_VERS = 2.0
CREATION_DATE  = 
ORIGINATOR     = 

OBJECT_NAME    = COSMOS 2242
OBJECT_ID      = 1993-024A
CENTER_NAME    = EARTH
REF_FRAME      = TEME
TIME_SYSTEM    = UTC
MEAN_ELEMENT_THEORY = SGP/SGP4

EPOCH          = 2026-02-28T16:13:49.817856
MEAN_MOTION    = 14.96505915
ECCENTRICITY   = .0015876
INCLINATION    = 82.5161
RA_OF_ASC_NODE = 275.3397
ARG_OF_PERICENTER = 341.0007
MEAN_ANOMALY   = 19.0621

EPHEMERIS_TYPE = 0
CLASSIFICATION_TYPE = U
NORAD_CAT_ID   = 22626
ELEMENT_SET_NO = 999
REV_AT_EPOCH   = 77904
BSTAR          = .17405E-3
MEAN_MOTION_DOT = .2007E-4
MEAN_MOTION_DDOT = 0

CCSDS_OMM_VERS = 2.0
CREATION_DATE  = 
ORIGINATOR     = 

OBJECT_NAME    = SL-16 R/B
OBJECT_ID      = 1993-059B
CENTER_NAME    = EARTH
REF_FRAME      = TEME
TIME_SYSTEM    = UTC
MEAN_ELEMENT_THEORY = SGP/SGP4

EPOCH          = 2026-02-28T20:47:02.069088
MEAN_MOTION    = 14.17231264
ECCENTRICITY   = .0018888
INCLINATION    = 70.9912
RA_OF_ASC_NODE = 29.7325
ARG_OF_PERICENTER = 228.8271
MEAN_ANOMALY   = 131.1224

EPHEMERIS_TYPE = 0
CLASSIFICATION_TYPE = U
NORAD_CAT_ID   = 22803
ELEMENT_SET_NO = 999
REV_AT_EPOCH   = 67828
BSTAR          = .12099E-3
MEAN_MOTION_DOT = .197E-5
MEAN_MOTION_DDOT = 0

CCSDS_OMM_VERS = 2.0
CREATION_DATE  = 
ORIGINATOR     = 

OBJECT_NAME    = ARIANE 40 R/B
OBJECT_ID      = 1993-061H
CENTER_NAME    = EARTH
REF_FRAME      = TEME
TIME_SYSTEM    = UTC
MEAN_ELEMENT_THEORY = SGP/SGP4

EPOCH          = 2026-02-28T18:14:46.139136
MEAN_MOTION    = 14.32855372
ECCENTRICITY   = .0009737
INCLINATION    = 98.4937
RA_OF_ASC_NODE = 128.8235
ARG_OF_PERICENTER = 314.5434
MEAN_ANOMALY   = 45.4954

EPHEMERIS_TYPE = 0
CLASSIFICATION_TYPE = U
NORAD_CAT_ID   = 22830
ELEMENT_SET_NO = 999
REV_AT_EPOCH   = 69282
BSTAR          = .93209E-4
MEAN_MOTION_DOT = .211E-5
MEAN_MOTION_DDOT = 0

CCSDS_OMM_VERS = 2.0
CREATION_DATE  = 
ORIGINATOR     = 

OBJECT_NAME    = COSMOS 2278
OBJECT_ID      = 1994-023A
CENTER_NAME    = EARTH
REF_FRAME      = TEME
TIME_SYSTEM    = UTC
MEAN_ELEMENT_THEORY = SGP/SGP4

EPOCH          = 2026-02-28T19:52:16.923360
MEAN_MOTION    = 14.14373294
ECCENTRICITY   = .000754
INCLINATION    = 71.0536
RA_OF_ASC_NODE = 193.6356
ARG_OF_PERICENTER = 31.2671
MEAN_ANOMALY   = 328.8899

EPHEMERIS_TYPE = 0
CLASSIFICATION_TYPE = U
NORAD_CAT_ID   = 23087
ELEMENT_SET_NO = 999
REV_AT_EPOCH   = 64355
BSTAR          = .21605E-3
MEAN_MOTION_DOT = .366E-5
MEAN_MOTION_DDOT = 0

CCSDS_OMM_VERS = 2.0
CREATION_DATE  = 
ORIGINATOR     = 

OBJECT_NAME    = SL-16 R/B
OBJECT_ID      = 1994-023B
CENTER_NAME    = EARTH
REF_FRAME      = TEME
TIME_SYSTEM    = UTC
MEAN_ELEMENT_THEORY = SGP/SGP4

EPOCH          = 2026-02-28T12:35:57.700032
MEAN_MOTION    = 14.15013402
ECCENTRICITY   = .0005474
INCLINATION    = 70.9987
RA_OF_ASC_NODE = 90.1355
ARG_OF_PERICENTER = 294.4161
MEAN_ANOMALY   = 65.6390

EPHEMERIS_TYPE = 0
CLASSIFICATION_TYPE = U
NORAD_CAT_ID   = 23088
ELEMENT_SET_NO = 999
REV_AT_EPOCH   = 64479
BSTAR          = .19884E-4
MEAN_MOTION_DOT = -.9E-7
MEAN_MOTION_DDOT = 0

CCSDS_OMM_VERS = 2.0
CREATION_DATE  = 
ORIGINATOR     = 

OBJECT_NAME    = SL-16 R/B
OBJECT_ID      = 1994-074B
CENTER_NAME    = EARTH
REF_FRAME      = TEME
TIME_SYSTEM    = UTC
MEAN_ELEMENT_THEORY = SGP/SGP4

EPOCH          = 2026-02-28T16:08:27.965760
MEAN_MOTION    = 14.79395584
ECCENTRICITY   = .0005227
INCLINATION    = 97.7122
RA_OF_ASC_NODE = 90.8551
ARG_OF_PERICENTER = 245.4987
MEAN_ANOMALY   = 229.0130

EPHEMERIS_TYPE = 0
CLASSIFICATION_TYPE = U
NORAD_CAT_ID   = 23343
ELEMENT_SET_NO = 999
REV_AT_EPOCH   = 68591
BSTAR          = .78115E-4
MEAN_MOTION_DOT = .533E-5
MEAN_MOTION_DDOT = 0

CCSDS_OMM_VERS = 2.0
CREATION_DATE  = 
ORIGINATOR     = 

OBJECT_NAME    = SL-16 R/B
OBJECT_ID      = 1994-077B
CENTER_NAME    = EARTH
REF_FRAME      = TEME
TIME_SYSTEM    = UTC
MEAN_ELEMENT_THEORY = SGP/SGP4

EPOCH          = 2026-02-28T20:43:24.272832
MEAN_MOTION    = 14.15563192
ECCENTRICITY   = .0003558
INCLINATION    = 70.9849
RA_OF_ASC_NODE = 11.0558
ARG_OF_PERICENTER = 223.4029
MEAN_ANOMALY   = 136.6814

EPHEMERIS_TYPE = 0
CLASSIFICATION_TYPE = U
NORAD_CAT_ID   = 23405
ELEMENT_SET_NO = 999
REV_AT_EPOCH   = 61498
BSTAR          = -.9261E-4
MEAN_MOTION_DOT = -.229E-5
MEAN_MOTION_DDOT = 0

CCSDS_OMM_VERS = 2.0
CREATION_DATE  = 
ORIGINATOR     = 

OBJECT_NAME    = ARIANE 40+ R/B
OBJECT_ID      = 1995-021B
CENTER_NAME    = EARTH
REF_FRAME      = TEME
TIME_SYSTEM    = UTC
MEAN_ELEMENT_THEORY = SGP/SGP4

EPOCH          = 2026-02-28T19:00:29.580192
MEAN_MOTION    = 14.39764792
ECCENTRICITY   = .0007252
INCLINATION    = 98.4516
RA_OF_ASC_NODE = 131.3945
ARG_OF_PERICENTER = 160.2065
MEAN_ANOMALY   = 310.8929

EPHEMERIS_TYPE = 0
CLASSIFICATION_TYPE = U
NORAD_CAT_ID   = 23561
ELEMENT_SET_NO = 999
REV_AT_EPOCH   = 61796
BSTAR          = .11115E-3
MEAN_MOTION_DOT = .305E-5
MEAN_MOTION_DDOT = 0

CCSDS_OMM_VERS = 2.0
CREATION_DATE  = 
ORIGINATOR     = 

OBJECT_NAME    = SL-16 R/B
OBJECT_ID      = 1995-058B
CENTER_NAME    = EARTH
REF_FRAME      = TEME
TIME_SYSTEM    = UTC
MEAN_ELEMENT_THEORY = SGP/SGP4

EPOCH          = 2026-02-28T19:11:05.089344
MEAN_MOTION    = 14.15492891
ECCENTRICITY   = .0011074
INCLINATION    = 71.0208
RA_OF_ASC_NODE = 198.9182
ARG_OF_PERICENTER = 141.5555
MEAN_ANOMALY   = 218.6359

EPHEMERIS_TYPE = 0
CLASSIFICATION_TYPE = U
NORAD_CAT_ID   = 23705
ELEMENT_SET_NO = 999
REV_AT_EPOCH   = 56659
BSTAR          = -.61508E-4
MEAN_MOTION_DOT = -.168E-5
MEAN_MOTION_DDOT = 0

CCSDS_OMM_VERS = 2.0
CREATION_DATE  = 
ORIGINATOR     = 

OBJECT_NAME    = SL-16 R/B
OBJECT_ID      = 1996-051B
CENTER_NAME    = EARTH
REF_FRAME      = TEME
TIME_SYSTEM    = UTC
MEAN_ELEMENT_THEORY = SGP/SGP4

EPOCH          = 2026-02-28T19:37:19.787232
MEAN_MOTION    = 14.12412950
ECCENTRICITY   = .001588
INCLINATION    = 70.7591
RA_OF_ASC_NODE = 194.0161
ARG_OF_PERICENTER = 161.0048
MEAN_ANOMALY   = 199.1667

EPHEMERIS_TYPE = 0
CLASSIFICATION_TYPE = U
NORAD_CAT_ID   = 24298
ELEMENT_SET_NO = 999
REV_AT_EPOCH   = 52039
BSTAR          = .653E-4
MEAN_MOTION_DOT = .71E-6
MEAN_MOTION_DDOT = 0

CCSDS_OMM_VERS = 2.0
CREATION_DATE  = 
ORIGINATOR     = 

OBJECT_NAME    = ORBVIEW 2 (SEASTAR)
OBJECT_ID      = 1997-037A
CENTER_NAME    = EARTH
REF_FRAME      = TEME
TIME_SYSTEM    = UTC
MEAN_ELEMENT_THEORY = SGP/SGP4

EPOCH          = 2026-02-28T10:13:52.351968
MEAN_MOTION    = 14.35486363
ECCENTRICITY   = .0003214
INCLINATION    = 98.8551
RA_OF_ASC_NODE = 223.4935
ARG_OF_PERICENTER = 90.6647
MEAN_ANOMALY   = 269.4906

EPHEMERIS_TYPE = 0
CLASSIFICATION_TYPE = U
NORAD_CAT_ID   = 24883
ELEMENT_SET_NO = 999
REV_AT_EPOCH   = 50714
BSTAR          = .13059E-3
MEAN_MOTION_DOT = .329E-5
MEAN_MOTION_DDOT = 0

